{
    "links": {
        "self": "http://www.neowsapp.com/rest/v1/neo/3624596?api_key=iIulBulltgU6a56xZRHN4H3l9WmuAYTsLGpBGhQ2"
    },
    "id": "3624596",
    "neo_reference_id": "3624596",
    "name": "(2013 BU15)",
    "designation": "2013 BU15",
    "nasa_jpl_url": "http://ssd.jpl.nasa.gov/sbdb.cgi?sstr=3624596",
    "absolute_magnitude_h": 23.3,
    "estimated_diameter": {
        "kilometers": {
            "estimated_diameter_min": 0.058150704,
            "estimated_diameter_max": 0.130028927
        },
        "meters": {
            "estimated_diameter_min": 58.1507039646,
            "estimated_diameter_max": 130.0289270043
        },
        "miles": {
            "estimated_diameter_min": 0.0361331611,
            "estimated_diameter_max": 0.0807962044
        },
        "feet": {
            "estimated_diameter_min": 190.7831555951,
            "estimated_diameter_max": 426.6041048727
        }
    },
    "is_potentially_hazardous_asteroid": false,
    "close_approach_data": [
        {
            "close_approach_date": "1932-01-13",
            "close_approach_date_full": "1932-Jan-13 04:03",
            "epoch_date_close_approach": -1198180620000,
            "relative_velocity": {
                "kilometers_per_second": "30.1790817045",
                "kilometers_per_hour": "108644.6941361622",
                "miles_per_hour": "67507.5878647726"
            },
            "miss_distance": {
                "astronomical": "0.443703932",
                "lunar": "172.600829548",
                "kilometers": "66377163.13782484",
                "miles": "41244856.624429192"
            },
            "orbiting_body": "Earth"
        },
        {
            "close_approach_date": "1938-07-07",
            "close_approach_date_full": "1938-Jul-07 20:25",
            "epoch_date_close_approach": -993612900000,
            "relative_velocity": {
                "kilometers_per_second": "21.0361319935",
                "kilometers_per_hour": "75730.075176451",
                "miles_per_hour": "47055.7236561675"
            },
            "miss_distance": {
                "astronomical": "0.1486347331",
                "lunar": "57.8189111759",
                "kilometers": "22235439.479778497",
                "miles": "13816461.4149053786"
            },
            "orbiting_body": "Earth"
        },
        {
            "close_approach_date": "1939-12-29",
            "close_approach_date_full": "1939-Dec-29 07:32",
            "epoch_date_close_approach": -947003280000,
            "relative_velocity": {
                "kilometers_per_second": "5.3814341732",
                "kilometers_per_hour": "19373.1630235525",
                "miles_per_hour": "12037.7301020513"
            },
            "miss_distance": {
                "astronomical": "1.7520157806",
                "lunar": "681.5341386534",
                "kilometers": "262097828.984147322",
                "miles": "162860039.0103921636"
            },
            "orbiting_body": "Juptr"
        },
        {
            "close_approach_date": "1966-07-25",
            "close_approach_date_full": "1966-Jul-25 01:46",
            "epoch_date_close_approach": -108512040000,
            "relative_velocity": {
                "kilometers_per_second": "30.1279246686",
                "kilometers_per_hour": "108460.5288068344",
                "miles_per_hour": "67393.1546911133"
            },
            "miss_distance": {
                "astronomical": "0.4596654838",
                "lunar": "178.8098731982",
                "kilometers": "68764977.288999506",
                "miles": "42728575.5370089428"
            },
            "orbiting_body": "Earth"
        },
        {
            "close_approach_date": "2013-02-04",
            "close_approach_date_full": "2013-Feb-04 22:35",
            "epoch_date_close_approach": 1360017300000,
            "relative_velocity": {
                "kilometers_per_second": "17.8804312813",
                "kilometers_per_hour": "64369.5526125335",
                "miles_per_hour": "39996.7367330489"
            },
            "miss_distance": {
                "astronomical": "0.0311607287",
                "lunar": "12.1215234643",
                "kilometers": "4661578.641167869",
                "miles": "2896570.6518558322"
            },
            "orbiting_body": "Earth"
        }
    ],
    "orbital_data": {
        "orbit_id": "11",
        "orbit_determination_date": "2017-04-06 08:47:09",
        "first_observation_date": "2013-01-17",
        "last_observation_date": "2013-02-02",
        "data_arc_in_days": 16,
        "observations_used": 62,
        "orbit_uncertainty": "8",
        "minimum_orbit_intersection": ".000674134",
        "jupiter_tisserand_invariant": "3.410",
        "epoch_osculation": "2456315.5",
        "eccentricity": ".6520146622313858",
        "semi_major_axis": "2.132174378371472",
        "inclination": "2.21201078470952",
        "ascending_node_longitude": "319.427686431845",
        "orbital_period": "1137.188625979916",
        "perihelion_distance": ".7419654212391819",
        "perihelion_argument": "247.1282377870708",
        "aphelion_distance": "3.522383335503763",
        "perihelion_time": "2456371.039639950765",
        "mean_anomaly": "342.4178065753636",
        "mean_motion": ".3165701729471553",
        "equinox": "J2000",
        "orbit_class": {
            "orbit_class_type": "APO",
            "orbit_class_description": "Near-Earth asteroid orbits which cross the Earth’s orbit similar to that of 1862 Apollo",
            "orbit_class_range": "a (semi-major axis) > 1.0 AU; q (perihelion) < 1.017 AU"
        }
    },
    "is_sentry_object": false
}